GLOBALSTAR M075 [+]     
1 37192U 10054E   23302.91281660 -.00000055  00000+0  27264-3 0  9999
2 37192  51.9938 197.0645 0001010  70.2394  10.4575 12.62255160600703
GLOBALSTAR M073 [+]     
1 37193U 10054F   23302.73931855 -.00000105  00000+0 -53902-5 0  9995
2 37193  52.0042 110.9523 0000959  98.9156 274.4126 12.62269156602510
GLOBALSTAR M083 [+]     
1 37739U 11033A   23302.59381880 -.00000096  00000+0  41369-4 0  9991
2 37739  51.9870  60.9390 0000624  86.7824 286.4832 12.62262346571511
GLOBALSTAR M088 [+]     
1 37740U 11033B   23302.84117963 -.00000071  00000+0  18309-3 0  9990
2 37740  51.9746 326.1844 0000534  55.6458 121.3773 12.62266905567379
GLOBALSTAR M091 [+]     
1 37741U 11033C   23302.69515953 -.00000090  00000+0  78164-4 0  9992
2 37741  51.9996 289.1175 0000725  46.0184 126.3968 12.62267773567852
GLOBALSTAR M085 [+]     
1 37742U 11033D   23302.60229769 -.00000086  00000+0  96601-4 0  9992
2 37742  51.9860 240.9653 0000872  50.8201 120.0079 12.62264295568351
GLOBALSTAR M081 [+]     
1 37743U 11033E   23302.83262222 -.00000091  00000+0  71794-4 0  9991
2 37743  51.9953 242.6829 0001014  60.1793 317.7307 12.62265965568532
GLOBALSTAR M089 [+]     
1 37744U 11033F   23302.95036541 -.00000055  00000+0  27496-3 0  9997
2 37744  51.9919 196.6653 0000949  89.8764 283.2179 12.62268951569397
